     2.100          NAVIGATION                              RINEX VERSION / TYPE
fic2rin                                 07/12/2010 00:08:30 PGM / RUN BY / DATE
                                                            END OF HEADER
19 10  7 11 22  0  0.0 -.489414669573D-04 -.295585778076D-11  .000000000000D+00
     .340000000000D+02  .130937500000D+02  .469305262734D-08  .149130746898D+01
     .968575477600D-06  .666092755273D-02  .101625919342D-04  .515375857735D+04
     .792000000000D+05  .372529029846D-07 -.247597729796D+01  .875443220139D-07
     .958019272480D+00  .178250000000D+03 -.125106982545D+00 -.795926010656D-08
     .509306928964D-09  .100000000000D+01  .159200000000D+04  .000000000000D+00
     .240000000000D+01  .000000000000D+00 -.149011611938D-07  .340000000000D+02
     .720060000000D+05  .400000000000D+01
20 10  7 11 22  0  0.0  .534830614924D-04 -.454747350886D-12  .000000000000D+00
     .340000000000D+02  .125000000000D+02  .476769859378D-08 -.243532222961D+01
     .672414898872D-06  .415131042246D-02  .107549130917D-04  .515357512093D+04
     .792000000000D+05  .577419996262D-07 -.492153274925D+00 -.614672899246D-07
     .936816540981D+00  .160937500000D+03  .132332065323D+01 -.788497129785D-08
    -.696457581682D-09  .100000000000D+01  .159200000000D+04  .000000000000D+00
     .240000000000D+01  .000000000000D+00 -.791624188423D-08  .340000000000D+02
     .720060000000D+05  .400000000000D+01
21 10  7 11 22  0  0.0 -.732750631869D-04 -.261479726760D-11  .000000000000D+00
     .290000000000D+02 -.253125000000D+01  .556808907612D-08 -.153867094128D+01
    -.208616256714D-06  .167433543829D-01  .396184623241D-05  .515364500427D+04
     .792000000000D+05  .271946191788D-06 -.149491164708D+01 -.180676579475D-06
     .931920132226D+00  .284625000000D+03 -.246160256690D+01 -.840749306298D-08
     .321441960776D-11  .100000000000D+01  .159200000000D+04  .000000000000D+00
     .240000000000D+01  .000000000000D+00 -.121071934700D-07  .290000000000D+02
     .720060000000D+05  .400000000000D+01
22 10  7 11 22  0  0.0  .167763791978D-03 -.682121026330D-12  .000000000000D+00
     .810000000000D+02  .200000000000D+01  .476984154019D-08  .271527571443D+01
     .126659870148D-06  .545673759189D-02  .113584101200D-04  .515371776390D+04
     .792000000000D+05  .502914190292D-07 -.433411354534D+00  .279396772385D-07
     .934634216844D+00  .146625000000D+03 -.194757957516D+01 -.792032991353D-08
    -.589310261424D-09  .100000000000D+01  .159200000000D+04  .000000000000D+00
     .485000000000D+01  .000000000000D+00 -.176951289177D-07  .810000000000D+02
     .720060000000D+05  .400000000000D+01
23 10  7 11 22  0  0.0  .363388098776D-03 -.159161572810D-11  .000000000000D+00
     .420000000000D+02  .158687500000D+03  .406588364609D-08  .990011200363D+00
     .831671059132D-05  .687744119205D-02  .752881169319D-05  .515367397690D+04
     .792000000000D+05  .115483999252D-06  .595477357531D+00  .206753611565D-06
     .967813017480D+00  .237937500000D+03  .304277553632D+01 -.790461497323D-08
     .296798077117D-09  .100000000000D+01  .159200000000D+04  .000000000000D+00
     .240000000000D+01  .000000000000D+00 -.200234353542D-07  .420000000000D+02
     .720060000000D+05  .400000000000D+01
24 10  7 11 22  0  0.0  .303592532873D-03  .318323145621D-11  .000000000000D+00
     .760000000000D+02 -.262500000000D+01  .528021994235D-08  .182327399669D+01
    -.104308128357D-06  .568243127782D-02  .447407364845D-05  .515482140160D+04
     .792000000000D+05  .707805156708D-07 -.145559581879D+01  .577419996262D-07
     .948527380144D+00  .284531250000D+03 -.459502340483D+00 -.834856203683D-08
    -.261082303697D-09  .100000000000D+01  .159200000000D+04  .000000000000D+00
     .340000000000D+01  .000000000000D+00 -.139698386192D-08  .760000000000D+02
     .720060000000D+05  .400000000000D+01
25 10  7 11 22  0  0.0 -.357162207365D-05 -.136424205266D-11  .000000000000D+00
     .250000000000D+02 -.157875000000D+03  .451161649836D-08  .301647054593D+01
    -.814348459244D-05  .902457046323D-03  .751949846745D-05  .515601561356D+04
     .792000000000D+05  .353902578354D-07  .266621582330D+01 -.372529029846D-08
     .960348618420D+00  .236000000000D+03  .210285586814D+01 -.803176312660D-08
    -.156077929844D-09  .100000000000D+01  .159200000000D+04  .100000000000D+01
     .240000000000D+01  .630000000000D+02  .465661287308D-08  .250000000000D+02
     .720060000000D+05  .400000000000D+01
26 10  7 11 22  0  0.0 -.798702239990D-04 -.602540239925D-11  .000000000000D+00
     .107000000000D+03  .153625000000D+03  .363050836810D-08  .436233047017D+00
     .800006091595D-05  .193311745534D-01  .855885446072D-05  .515238774300D+04
     .792000000000D+05 -.279396772385D-06  .653677353086D+00  .819563865662D-07
     .990455194537D+00  .231781250000D+03  .110482566769D+01 -.804426364730D-08
     .254296306748D-09  .100000000000D+01  .159200000000D+04  .000000000000D+00
     .240000000000D+01  .000000000000D+00 -.605359673500D-08  .107000000000D+03
     .720060000000D+05  .400000000000D+01
27 10  7 11 22  0  0.0  .169254373759D-03  .352429196937D-11  .000000000000D+00
     .610000000000D+02  .200937500000D+02  .443911347832D-08  .177508800162D+01
     .547617673874D-06  .215394891566D-01 -.135414302349D-05  .515360931587D+04
     .792000000000D+05  .325962901115D-06  .158210457822D+01 -.229105353355D-06
     .978484346555D+00  .413406250000D+03 -.139923967494D+01 -.824927218673D-08
     .803604901941D-10  .100000000000D+01  .159200000000D+04  .000000000000D+00
     .340000000000D+01  .000000000000D+00 -.419095158577D-08  .610000000000D+02
     .720060000000D+05  .400000000000D+01
28 10  7 11 22  0  0.0 -.108862295747D-04  .113686837722D-11  .000000000000D+00
     .220000000000D+02 -.185000000000D+03  .411409994020D-08  .283499076861D+01
    -.944547355175D-05  .160129527794D-01  .917725265026D-05  .515368486977D+04
     .792000000000D+05  .109896063805D-06  .271745593782D+01 -.212341547012D-06
     .971137503204D+00  .205375000000D+03 -.195114196355D+01 -.760674542291D-08
    -.236081262304D-09  .100000000000D+01  .159200000000D+04  .000000000000D+00
     .240000000000D+01  .000000000000D+00 -.107102096081D-07  .220000000000D+02
     .720060000000D+05  .400000000000D+01
29 10  7 11 22  0  0.0  .133826397359D-03  .261479726760D-11  .000000000000D+00
     .590000000000D+02 -.453125000000D+01  .445197115675D-08 -.138761457887D+01
    -.325962901115D-06  .293315853924D-02  .106859952211D-04  .515371285248D+04
     .792000000000D+05 -.894069671631D-07 -.252259682229D+01 -.149011611938D-07
     .960797946394D+00  .171125000000D+03 -.126518640560D+01 -.783889795014D-08
     .537522389965D-09  .100000000000D+01  .159200000000D+04  .000000000000D+00
     .240000000000D+01  .000000000000D+00 -.884756445885D-08  .590000000000D+02
     .720060000000D+05  .400000000000D+01
30 10  7 11 22  0  0.0  .259691849351D-03  .329691829393D-11  .000000000000D+00
     .240000000000D+02 -.165781250000D+03  .453661753976D-08 -.302452686359D+01
    -.857003033161D-05  .124380011111D-01  .699982047081D-05  .515372095299D+04
     .792000000000D+05  .242143869400D-06  .263805499260D+01 -.409781932831D-07
     .956964975215D+00  .240562500000D+03  .148970458621D+01 -.791604402072D-08
    -.149649090628D-09  .100000000000D+01  .159200000000D+04  .000000000000D+00
     .240000000000D+01  .000000000000D+00 -.791624188423D-08  .240000000000D+02
     .720060000000D+05  .400000000000D+01
31 10  7 11 22  0  0.0 -.251531600952D-04  .261479726760D-11  .000000000000D+00
     .790000000000D+02 -.350000000000D+01  .455018953366D-08 -.650474726975D+00
    -.460073351860D-06  .734329095576D-02 -.968575477600D-07  .515372329330D+04
     .792000000000D+05 -.298023223877D-07  .163791076874D+01 -.689178705215D-07
     .977000903735D+00  .390375000000D+03 -.105019559602D+01 -.856607109696D-08
     .138220043134D-09  .100000000000D+01  .159200000000D+04  .000000000000D+00
     .240000000000D+01  .000000000000D+00 -.130385160446D-07  .790000000000D+02
     .720060000000D+05  .400000000000D+01
32 10  7 11 22  0  0.0 -.357450917363D-04 -.864019966684D-11  .000000000000D+00
     .820000000000D+02  .241875000000D+02  .431982279510D-08  .135336554248D+00
     .118277966976D-05  .126135057071D-01  .115353614092D-04  .515369234467D+04
     .792000000000D+05  .316649675369D-07 -.374029347504D+00 -.242143869400D-06
     .958835860185D+00  .162031250000D+03 -.964463950343D+00 -.794497379719D-08
    -.656098757718D-09  .100000000000D+01  .159200000000D+04  .000000000000D+00
     .240000000000D+01  .000000000000D+00 -.325962901115D-08  .820000000000D+02
     .720060000000D+05  .400000000000D+01
11 10  7 11 21 59 44.0 -.749840401113D-04 -.261479726760D-11  .000000000000D+00
     .230000000000D+02  .171250000000D+02  .685349976149D-08 -.734116512248D+00
     .905245542526D-06  .107823341386D-01  .408105552197D-05  .515373853683D+04
     .791840000000D+05  .726431608200D-07 -.174422105774D+01  .251457095146D-06
     .887841601504D+00  .259343750000D+03  .815178726757D+00 -.928467245816D-08
     .525021869268D-10  .100000000000D+01  .159200000000D+04  .000000000000D+00
     .240000000000D+01  .000000000000D+00 -.116415321827D-07  .230000000000D+02
     .724560000000D+05  .400000000000D+01
22 10  7 11 21 59 44.0  .167758669704D-03 -.682121026330D-12  .000000000000D+00
     .180000000000D+02  .200000000000D+01  .476984154019D-08  .271294192707D+01
     .126659870148D-06  .545673503075D-02  .113584101200D-04  .515371776962D+04
     .791840000000D+05  .502914190292D-07 -.433411240426D+00  .279396772385D-07
     .934634243176D+00  .146625000000D+03 -.194757949177D+01 -.792032991353D-08
    -.589310261424D-09  .100000000000D+01  .159200000000D+04  .000000000000D+00
     .240000000000D+01  .000000000000D+00 -.176951289177D-07  .180000000000D+02
     .754860000000D+05  .400000000000D+01
